start=new Date('2023-05-10T00:00:00.000Z').valueOf();
sats=[{"OBJECT_TYPE":"PAYLOAD","PERIAPSIS":"356.657","TLE_LINE2":"2 55642  70.0005 282.7344 0003679 273.5559  86.5216 15.69917300 13538","INCLINATION":"70.0005","CLASSIFICATION_TYPE":"U","ELEMENT_SET_NO":"999","EPHEMERIS_TYPE":"0","OBJECT_ID":"2023-021Q","FILE":"3904553","ECCENTRICITY":"0.00036790","CENTER_NAME":"EARTH","MEAN_ELEMENT_THEORY":"SGP4","TIME_SYSTEM":"UTC","BSTAR":"0.00001653100000","RCS_SIZE":"LARGE","MEAN_ANOMALY":"86.5216","MEAN_MOTION_DOT":"0.00001775","SEMIMAJOR_AXIS":"6737.271","MEAN_MOTION":"15.69917300","REF_FRAME":"TEME","NORAD_CAT_ID":"55642","COUNTRY_CODE":"US","RA_OF_ASC_NODE":"282.7344","ARG_OF_PERICENTER":"273.5559","REV_AT_EPOCH":"1353","DECAY_DATE":null,"SITE":"AFWTR","APOAPSIS":"361.614","MEAN_MOTION_DDOT":"0.0000000000000","PERIOD":"91.725","EPOCH":"2023-05-09T13:59:39.782112","LAUNCH_DATE":"2023-02-17","OBJECT_NAME":"STARLINK-5478","GP_ID":"231510561","TLE_LINE1":"1 55642U 23021Q   23129.58309933  .00001775  00000-0  16531-4 0  9997"},{"SEMIMAJOR_AXIS":"6737.283","MEAN_MOTION_DOT":"0.00001630","MEAN_ANOMALY":"83.8171","RCS_SIZE":"LARGE","MEAN_ELEMENT_THEORY":"SGP4","TIME_SYSTEM":"UTC","BSTAR":"0.00001532800000","CENTER_NAME":"EARTH","FILE":"3904553","OBJECT_ID":"2023-021R","ECCENTRICITY":"0.00035200","EPHEMERIS_TYPE":"0","INCLINATION":"69.9979","CLASSIFICATION_TYPE":"U","ELEMENT_SET_NO":"999","PERIAPSIS":"356.776","TLE_LINE2":"2 55643  69.9979 282.7272 0003520 276.2624  83.8171 15.69913093 13539","OBJECT_TYPE":"PAYLOAD","GP_ID":"231510298","TLE_LINE1":"1 55643U 23021R   23129.58194079  .00001630  00000-0  15328-4 0  9994","OBJECT_NAME":"STARLINK-5483","LAUNCH_DATE":"2023-02-17","PERIOD":"91.725","EPOCH":"2023-05-09T13:57:59.684256","MEAN_MOTION_DDOT":"0.0000000000000","APOAPSIS":"361.519","DECAY_DATE":null,"REV_AT_EPOCH":"1353","SITE":"AFWTR","ARG_OF_PERICENTER":"276.2624","RA_OF_ASC_NODE":"282.7272","COUNTRY_CODE":"US","NORAD_CAT_ID":"55643","MEAN_MOTION":"15.69913093","REF_FRAME":"TEME"},{"TLE_LINE1":"1 55644U 23021S   23129.58246210  .00002441  00000-0  22067-4 0  9999","GP_ID":"231509058","OBJECT_NAME":"STARLINK-5502","LAUNCH_DATE":"2023-02-17","EPOCH":"2023-05-09T13:58:44.725440","PERIOD":"91.724","APOAPSIS":"361.469","MEAN_MOTION_DDOT":"0.0000000000000","ARG_OF_PERICENTER":"276.0649","SITE":"AFWTR","REV_AT_EPOCH":"1353","DECAY_DATE":null,"NORAD_CAT_ID":"55644","RA_OF_ASC_NODE":"282.7307","COUNTRY_CODE":"US","REF_FRAME":"TEME","MEAN_MOTION":"15.69921629","MEAN_MOTION_DOT":"0.00002441","SEMIMAJOR_AXIS":"6737.258","MEAN_ANOMALY":"84.0150","RCS_SIZE":"LARGE","CENTER_NAME":"EARTH","BSTAR":"0.00002206700000","TIME_SYSTEM":"UTC","MEAN_ELEMENT_THEORY":"SGP4","OBJECT_ID":"2023-021S","FILE":"3904553","ECCENTRICITY":"0.00034820","EPHEMERIS_TYPE":"0","TLE_LINE2":"2 55644  70.0008 282.7307 0003482 276.0649  84.0150 15.69921629 13531","PERIAPSIS":"356.777","ELEMENT_SET_NO":"999","CLASSIFICATION_TYPE":"U","INCLINATION":"70.0008","OBJECT_TYPE":"PAYLOAD"},{"ARG_OF_PERICENTER":"266.8944","REV_AT_EPOCH":"1350","DECAY_DATE":null,"SITE":"AFWTR","MEAN_MOTION_DDOT":"0.0000000000000","APOAPSIS":"361.692","MEAN_MOTION":"15.69909809","REF_FRAME":"TEME","NORAD_CAT_ID":"55645","COUNTRY_CODE":"US","RA_OF_ASC_NODE":"283.2644","OBJECT_NAME":"STARLINK-5102","TLE_LINE1":"1 55645U 23021T   23129.39004995  .00001398  00000-0  13402-4 0  9994","GP_ID":"231509810","PERIOD":"91.725","EPOCH":"2023-05-09T09:21:40.315680","LAUNCH_DATE":"2023-02-17","EPHEMERIS_TYPE":"0","ECCENTRICITY":"0.00037630","FILE":"3904553","OBJECT_ID":"2023-021T","OBJECT_TYPE":"PAYLOAD","PERIAPSIS":"356.622","TLE_LINE2":"2 55645  69.9981 283.2644 0003763 266.8944  93.1822 15.69909809 13506","CLASSIFICATION_TYPE":"U","INCLINATION":"69.9981","ELEMENT_SET_NO":"999","MEAN_ANOMALY":"93.1822","MEAN_MOTION_DOT":"0.00001398","SEMIMAJOR_AXIS":"6737.292","CENTER_NAME":"EARTH","MEAN_ELEMENT_THEORY":"SGP4","BSTAR":"0.00001340200000","TIME_SYSTEM":"UTC","RCS_SIZE":"LARGE"},{"RCS_SIZE":"LARGE","CENTER_NAME":"EARTH","MEAN_ELEMENT_THEORY":"SGP4","TIME_SYSTEM":"UTC","BSTAR":"0.00001369400000","MEAN_MOTION_DOT":"0.00001434","SEMIMAJOR_AXIS":"6737.272","MEAN_ANOMALY":"89.2064","PERIAPSIS":"356.591","TLE_LINE2":"2 55646  70.0003 282.7329 0003779 270.8699  89.2064 15.69916697 13538","CLASSIFICATION_TYPE":"U","INCLINATION":"70.0003","ELEMENT_SET_NO":"999","OBJECT_TYPE":"PAYLOAD","FILE":"3904553","OBJECT_ID":"2023-021U","ECCENTRICITY":"0.00037790","EPHEMERIS_TYPE":"0","LAUNCH_DATE":"2023-02-17","PERIOD":"91.725","EPOCH":"2023-05-09T13:59:21.479136","GP_ID":"231510061","TLE_LINE1":"1 55646U 23021U   23129.58288749  .00001434  00000-0  13694-4 0  9991","OBJECT_NAME":"STARLINK-5104","NORAD_CAT_ID":"55646","COUNTRY_CODE":"US","RA_OF_ASC_NODE":"282.7329","MEAN_MOTION":"15.69916697","REF_FRAME":"TEME","APOAPSIS":"361.683","MEAN_MOTION_DDOT":"0.0000000000000","ARG_OF_PERICENTER":"270.8699","DECAY_DATE":null,"REV_AT_EPOCH":"1353","SITE":"AFWTR"},{"SEMIMAJOR_AXIS":"6737.256","MEAN_MOTION_DOT":"-0.00012604","MEAN_ANOMALY":"257.7822","RCS_SIZE":"LARGE","BSTAR":"-0.00010321000000","TIME_SYSTEM":"UTC","MEAN_ELEMENT_THEORY":"SGP4","CENTER_NAME":"EARTH","OBJECT_ID":"2023-021V","FILE":"3901186","ECCENTRICITY":"0.00036670","EPHEMERIS_TYPE":"0","ELEMENT_SET_NO":"999","CLASSIFICATION_TYPE":"U","INCLINATION":"70.0003","TLE_LINE2":"2 55647  70.0003 296.0765 0003667 275.7348 257.7822 15.69922436  1306","PERIAPSIS":"356.650","OBJECT_TYPE":"PAYLOAD","GP_ID":"231274350","TLE_LINE1":"1 55647U 23021V   23124.83334491 -.00012604  00000-0 -10321-3 0  9997","OBJECT_NAME":"STARLINK-5510","LAUNCH_DATE":"2023-02-17","EPOCH":"2023-05-04T20:00:01.000224","PERIOD":"91.724","APOAPSIS":"361.591","MEAN_MOTION_DDOT":"0.0000000000000","SITE":"AFWTR","REV_AT_EPOCH":"130","DECAY_DATE":null,"ARG_OF_PERICENTER":"275.7348","COUNTRY_CODE":"US","RA_OF_ASC_NODE":"296.0765","NORAD_CAT_ID":"55647","REF_FRAME":"TEME","MEAN_MOTION":"15.69922436"},{"APOAPSIS":"361.645","MEAN_MOTION_DDOT":"0.0000000000000","SITE":"AFWTR","REV_AT_EPOCH":"1353","DECAY_DATE":null,"ARG_OF_PERICENTER":"264.0567","COUNTRY_CODE":"US","RA_OF_ASC_NODE":"282.7302","NORAD_CAT_ID":"55648","REF_FRAME":"TEME","MEAN_MOTION":"15.69910488","GP_ID":"231509559","TLE_LINE1":"1 55648U 23021W   23129.58236443  .00002228  00000-0  20304-4 0  9995","OBJECT_NAME":"STARLINK-5501","LAUNCH_DATE":"2023-02-17","EPOCH":"2023-05-09T13:58:36.286752","PERIOD":"91.725","ECCENTRICITY":"0.00036950","FILE":"3904553","OBJECT_ID":"2023-021W","EPHEMERIS_TYPE":"0","ELEMENT_SET_NO":"999","CLASSIFICATION_TYPE":"U","INCLINATION":"69.9984","TLE_LINE2":"2 55648  69.9984 282.7302 0003695 264.0567  96.0207 15.69910488 13539","PERIAPSIS":"356.666","OBJECT_TYPE":"PAYLOAD","SEMIMAJOR_AXIS":"6737.290","MEAN_MOTION_DOT":"0.00002228","MEAN_ANOMALY":"96.0207","RCS_SIZE":"LARGE","BSTAR":"0.00002030400000","TIME_SYSTEM":"UTC","MEAN_ELEMENT_THEORY":"SGP4","CENTER_NAME":"EARTH"},{"EPHEMERIS_TYPE":"0","ECCENTRICITY":"0.00037290","FILE":"3904553","OBJECT_ID":"2023-021X","OBJECT_TYPE":"PAYLOAD","TLE_LINE2":"2 55649  70.0015 282.7279 0003729 268.9774  91.0994 15.69923767 13534","PERIAPSIS":"356.605","ELEMENT_SET_NO":"999","INCLINATION":"70.0015","CLASSIFICATION_TYPE":"U","MEAN_ANOMALY":"91.0994","MEAN_MOTION_DOT":"0.00001624","SEMIMAJOR_AXIS":"6737.252","CENTER_NAME":"EARTH","TIME_SYSTEM":"UTC","BSTAR":"0.00001527400000","MEAN_ELEMENT_THEORY":"SGP4","RCS_SIZE":"LARGE","ARG_OF_PERICENTER":"268.9774","SITE":"AFWTR","DECAY_DATE":null,"REV_AT_EPOCH":"1353","APOAPSIS":"361.629","MEAN_MOTION_DDOT":"0.0000000000000","REF_FRAME":"TEME","MEAN_MOTION":"15.69923767","NORAD_CAT_ID":"55649","COUNTRY_CODE":"US","RA_OF_ASC_NODE":"282.7279","OBJECT_NAME":"STARLINK-5469","TLE_LINE1":"1 55649U 23021X   23129.58161960  .00001624  00000-0  15274-4 0  9996","GP_ID":"231509310","EPOCH":"2023-05-09T13:57:31.933440","PERIOD":"91.724","LAUNCH_DATE":"2023-02-17"},{"EPHEMERIS_TYPE":"0","FILE":"3904553","ECCENTRICITY":"0.00034880","OBJECT_ID":"2023-021Y","OBJECT_TYPE":"PAYLOAD","INCLINATION":"70.0016","CLASSIFICATION_TYPE":"U","ELEMENT_SET_NO":"999","PERIAPSIS":"356.777","TLE_LINE2":"2 55650  70.0016 282.7298 0003488 272.7561  87.3236 15.69920171 13530","MEAN_ANOMALY":"87.3236","SEMIMAJOR_AXIS":"6737.262","MEAN_MOTION_DOT":"0.00000293","MEAN_ELEMENT_THEORY":"SGP4","BSTAR":"0.00000420930000","TIME_SYSTEM":"UTC","CENTER_NAME":"EARTH","RCS_SIZE":"LARGE","REV_AT_EPOCH":"1353","DECAY_DATE":null,"SITE":"AFWTR","ARG_OF_PERICENTER":"272.7561","MEAN_MOTION_DDOT":"0.0000000000000","APOAPSIS":"361.477","MEAN_MOTION":"15.69920171","REF_FRAME":"TEME","RA_OF_ASC_NODE":"282.7298","COUNTRY_CODE":"US","NORAD_CAT_ID":"55650","OBJECT_NAME":"STARLINK-5494","GP_ID":"231510562","TLE_LINE1":"1 55650U 23021Y   23129.58204194  .00000293  00000-0  42093-5 0  9996","PERIOD":"91.724","EPOCH":"2023-05-09T13:58:08.423616","LAUNCH_DATE":"2023-02-17"},{"SEMIMAJOR_AXIS":"6737.267","MEAN_MOTION_DOT":"0.00001019","MEAN_ANOMALY":"89.5247","RCS_SIZE":"LARGE","MEAN_ELEMENT_THEORY":"SGP4","TIME_SYSTEM":"UTC","BSTAR":"0.00001024300000","CENTER_NAME":"EARTH","ECCENTRICITY":"0.00034510","FILE":"3904553","OBJECT_ID":"2023-021Z","EPHEMERIS_TYPE":"0","CLASSIFICATION_TYPE":"U","INCLINATION":"69.9989","ELEMENT_SET_NO":"999","PERIAPSIS":"356.807","TLE_LINE2":"2 55651  69.9989 282.7330 0003451 270.5553  89.5247 15.69918688 13537","OBJECT_TYPE":"PAYLOAD","GP_ID":"231510299","TLE_LINE1":"1 55651U 23021Z   23129.58257106  .00001019  00000-0  10243-4 0  9996","OBJECT_NAME":"STARLINK-5506","LAUNCH_DATE":"2023-02-17","PERIOD":"91.724","EPOCH":"2023-05-09T13:58:54.139584","MEAN_MOTION_DDOT":"0.0000000000000","APOAPSIS":"361.457","REV_AT_EPOCH":"1353","DECAY_DATE":null,"SITE":"AFWTR","ARG_OF_PERICENTER":"270.5553","RA_OF_ASC_NODE":"282.7330","COUNTRY_CODE":"US","NORAD_CAT_ID":"55651","MEAN_MOTION":"15.69918688","REF_FRAME":"TEME"}];
